STARLINK-31395          
1 59180U 24045C   26068.40969404 -.00002304  00000+0 -74312-4 0  9997
2 59180  43.0033  94.5482 0001103 271.0317  89.0408 15.27550307113117
KUIPER-00266            
1 67789U 26030AB  26067.91293632  .00029701  00000+0  98220-3 0  9996
2 67789  51.8807 223.5904 0022313  72.5291 287.8129 15.30874235  4964
